NORAD_CAT_ID,OBJECT_NAME,OBJECT_TYPE,EPOCH,MEAN_MOTION,ECCENTRICITY,INCLINATION,RA_OF_ASC_NODE,ARG_OF_PERICENTER,MEAN_ANOMALY,BSTAR,MEAN_MOTION_DOT,MEAN_MOTION_DDOT,TLE_LINE0,TLE_LINE1,TLE_LINE2,SEMIMAJOR_AXIS,PERIOD,APOGEE,PERIGEE,DECAYED
53573.0,STARLINK-4547,PAYLOAD,2024-03-29 18:27:01,15.0884442,0.0001365,53.2182,0.909,96.8732,263.2416,0.00038785,5.891e-05,0.0,0 STARLINK-4547,1 53573U 22101AY  24089.76876299  .00005891  00000-0  38785-3 0  9993,2 53573  53.2182   0.9090 0001365  96.8732 263.2416 15.08844420 89270,6917.867,95.437,540.676,538.788,0.0
53573.0,STARLINK-4547,PAYLOAD,2024-03-29 23:13:10,15.08838017,0.0001509,53.2194,0.018,105.3533,254.7626,5.1054e-05,5.25e-06,0.0,0 STARLINK-4547,1 53573U 22101AY  24089.96748306  .00000525  00000-0  51054-4 0  9996,2 53573  53.2194   0.0180 0001509 105.3533 254.7626 15.08838017 89306,6917.886,95.438,540.795,538.708,0.0
53573.0,STARLINK-4547,PAYLOAD,2024-03-30 10:20:52,15.08844243,0.0001189,53.2183,357.9351,83.0621,277.0507,0.00024793,3.661e-05,0.0,0 STARLINK-4547,1 53573U 22101AY  24090.43116331  .00003661  00000-0  24793-3 0  9990,2 53573  53.2183 357.9351 0001189  83.0621 277.0507 15.08844243 89373,6917.867,95.437,540.555,538.91,0.0
53573.0,STARLINK-4547,PAYLOAD,2024-03-30 21:28:34,15.0883283,0.0001294,53.2197,355.855,91.6539,268.4601,-4.9762e-06,-3.67e-06,0.0,0 STARLINK-4547,1 53573U 22101AY  24090.89484889 -.00000367  00000-0 -49762-5 0  9993,2 53573  53.2197 355.8550 0001294  91.6539 268.4601 15.08832830 89442,6917.902,95.438,540.662,538.872,0.0
53573.0,STARLINK-4547,PAYLOAD,2024-03-30 23:03:58,15.08836046,0.0001458,53.2196,355.5571,98.2061,261.9096,2.8561e-05,1.67e-06,0.0,0 STARLINK-4547,1 53573U 22101AY  24090.96108823  .00000167  00000-0  28561-4 0  9991,2 53573  53.2196 355.5571 0001458  98.2061 261.9096 15.08836046 89456,6917.892,95.438,540.766,538.749,0.0
53573.0,STARLINK-4547,PAYLOAD,2024-03-31 10:11:39,15.08845441,0.0001454,53.2198,353.479,106.5106,253.6046,0.00023699,3.486e-05,0.0,0 STARLINK-4547,1 53573U 22101AY  24091.42476462  .00003486  00000-0  23699-3 0  9993,2 53573  53.2198 353.4790 0001454 106.5106 253.6046 15.08845441 89527,6917.864,95.437,540.735,538.723,0.0
53573.0,STARLINK-4547,PAYLOAD,2024-03-31 21:19:21,15.08846761,0.0001366,53.2194,351.3972,92.4004,267.7144,0.00023175,3.403e-05,0.0,0 STARLINK-4547,1 53573U 22101AY  24091.88844368  .00003403  00000-0  23175-3 0  9995,2 53573  53.2194 351.3972 0001366  92.4004 267.7144 15.08846761 89592,6917.86,95.437,540.67,538.78,0.0
53573.0,STARLINK-4547,PAYLOAD,2024-04-01 10:02:26,15.08845839,0.000124,53.2175,349.0189,99.5341,260.5791,0.00015591,2.195e-05,0.0,0 STARLINK-4547,1 53573U 22101AY  24092.41836201  .00002195  00000-0  15591-3 0  9992,2 53573  53.2175 349.0189 0001240  99.5341 260.5791 15.08845839 89671,6917.863,95.437,540.585,538.87,0.0
53573.0,STARLINK-4547,PAYLOAD,2024-04-02 00:20:54,15.08842032,0.0001491,53.2193,346.3402,86.9291,273.1872,3.2829e-05,2.35e-06,0.0,0 STARLINK-4547,1 53573U 22101AY  24093.01452477  .00000235  00000-0  32829-4 0  9995,2 53573  53.2193 346.3402 0001491  86.9291 273.1872 15.08842032 89763,6917.874,95.437,540.771,538.708,0.0
53573.0,STARLINK-4547,PAYLOAD,2024-04-02 21:00:56,15.08836758,0.000156,53.2186,342.4754,73.5188,286.5975,-3.5808e-06,-3.45e-06,0.0,0 STARLINK-4547,1 53573U 22101AY  24093.87565097 -.00000345  00000-0 -35808-5 0  9997,2 53573  53.2186 342.4754 0001560  73.5188 286.5975 15.08836758 89890,6917.89,95.438,540.834,538.676,0.0
53573.0,STARLINK-4547,PAYLOAD,2024-04-03 00:11:42,15.08838717,0.0001639,53.219,341.8793,72.7356,287.3815,2.6876e-06,-2.45e-06,0.0,0 STARLINK-4547,1 53573U 22101AY  24094.00812986 -.00000245  00000-0  26876-5 0  9998,2 53573  53.2190 341.8793 0001639  72.7356 287.3815 15.08838717 89918,6917.884,95.438,540.883,538.615,0.0
53573.0,STARLINK-4547,PAYLOAD,2024-04-03 09:44:01,15.08838545,0.0001336,53.218,340.0982,82.3744,277.74,7.205e-05,8.59e-06,0.0,0 STARLINK-4547,1 53573U 22101AY  24094.40556991  .00000859  00000-0  72050-4 0  9997,2 53573  53.2180 340.0982 0001336  82.3744 277.7400 15.08838545 89978,6917.885,95.438,540.674,538.826,0.0
53573.0,STARLINK-4547,PAYLOAD,2024-04-03 22:27:06,15.08839667,0.0001384,53.218,337.7177,85.0155,275.0995,0.00014629,2.041e-05,0.0,0 STARLINK-4547,1 53573U 22101AY  24094.93549094  .00002041  00000-0  14629-3 0  9993,2 53573  53.2180 337.7177 0001384  85.0155 275.0995 15.08839667 90053,6917.881,95.438,540.704,538.789,0.0
53573.0,STARLINK-4547,PAYLOAD,2024-04-04 09:34:48,15.0884283,0.0001249,53.218,335.6348,90.328,269.7855,0.00016875,2.399e-05,0.0,0 STARLINK-4547,1 53573U 22101AY  24095.39916791  .00002399  00000-0  16875-3 0  9997,2 53573  53.2180 335.6348 0001249  90.3280 269.7855 15.08842830 90127,6917.872,95.437,540.601,538.873,0.0
53573.0,STARLINK-4547,PAYLOAD,2024-04-04 22:17:52,15.08847544,0.0001288,53.2183,333.2551,96.602,263.5119,0.00017751,2.539e-05,0.0,0 STARLINK-4547,1 53573U 22101AY  24095.92908432  .00002539  00000-0  17751-3 0  9999,2 53573  53.2183 333.2551 0001288  96.6020 263.5119 15.08847544 90205,6917.857,95.437,540.613,538.831,0.0
53573.0,STARLINK-4547,PAYLOAD,2024-04-05 01:28:39,15.08849074,0.0001294,53.2183,332.6603,96.459,263.6549,0.00018888,2.72e-05,0.0,0 STARLINK-4547,1 53573U 22101AY  24096.06156296  .00002720  00000-0  18888-3 0  9992,2 53573  53.2183 332.6603 0001294  96.4590 263.6549 15.08849074 90223,6917.853,95.437,540.613,538.822,0.0
53573.0,STARLINK-4547,PAYLOAD,2024-04-05 18:57:53,15.08846589,0.000134,53.2178,329.3887,98.5847,261.5297,0.00011019,1.466e-05,0.0,0 STARLINK-4547,1 53573U 22101AY  24096.79020417  .00001466  00000-0  11019-3 0  9992,2 53573  53.2178 329.3887 0001340  98.5847 261.5297 15.08846589 90331,6917.86,95.437,540.652,538.798,0.0
53573.0,STARLINK-4547,PAYLOAD,2024-04-05 20:33:16,15.08847293,0.0001342,53.2178,329.0913,98.6207,261.4937,0.00011489,1.541e-05,0.0,0 STARLINK-4547,1 53573U 22101AY  24096.85644348  .00001541  00000-0  11489-3 0  9999,2 53573  53.2178 329.0913 0001342  98.6207 261.4937 15.08847293 90345,6917.858,95.437,540.651,538.795,0.0
53573.0,STARLINK-4547,PAYLOAD,2024-04-05 22:08:39,15.08849907,0.0001378,53.2179,328.7942,99.1852,260.9296,0.00014221,1.977e-05,0.0,0 STARLINK-4547,1 53573U 22101AY  24096.92268182  .00001977  00000-0  14221-3 0  9995,2 53573  53.2179 328.7942 0001378  99.1852 260.9296 15.08849907 90352,6917.85,95.437,540.668,538.762,0.0
53573.0,STARLINK-4547,PAYLOAD,2024-04-06 21:59:27,15.08835707,0.000141,53.2185,324.3325,101.7454,258.3697,-3.1602e-05,-7.91e-06,0.0,0 STARLINK-4547,1 53573U 22101AY  24097.91629449 -.00000791  00000-0 -31602-4 0  9990,2 53573  53.2185 324.3325 0001410 101.7454 258.3697 15.08835707 90507,6917.894,95.438,540.734,538.783,0.0
53573.0,STARLINK-4547,PAYLOAD,2024-04-07 07:31:47,15.08824462,0.0001329,53.217,322.5489,96.2718,263.8426,-0.00016491,-2.91e-05,0.0,0 STARLINK-4547,1 53573U 22101AY  24098.31373941 -.00002910  00000-0 -16491-3 0  9991,2 53573  53.2170 322.5489 0001329  96.2718 263.8426 15.08824462 90565,6917.928,95.439,540.712,538.873,0.0
53573.0,STARLINK-4547,PAYLOAD,2024-04-07 13:53:20,15.08825448,0.0001319,53.2177,321.3589,97.3138,262.8004,-5.1533e-05,-1.108e-05,0.0,0 STARLINK-4547,1 53573U 22101AY  24098.57870653 -.00001108  00000-0 -51533-4 0  9996,2 53573  53.2177 321.3589 0001319  97.3138 262.8004 15.08825448 90608,6917.925,95.438,540.702,538.877,0.0
53573.0,STARLINK-4547,PAYLOAD,2024-04-07 21:50:15,15.08838189,0.0001232,53.2163,319.8739,105.6149,254.4979,-2.4096e-05,-6.71e-06,0.0,0 STARLINK-4547,1 53573U 22101AY  24098.90989827 -.00000671  00000-0 -24096-4 0  9995,2 53573  53.2163 319.8739 0001232 105.6149 254.4979 15.08838189 90650,6917.886,95.438,540.603,538.899,0.0
53573.0,STARLINK-4547,PAYLOAD,2024-04-08 07:22:33,15.08846294,0.0001257,53.2171,318.0893,103.3329,256.7803,6.4425e-05,7.38e-06,0.0,0 STARLINK-4547,1 53573U 22101AY  24099.30733241  .00000738  00000-0  64425-4 0  9999,2 53573  53.2171 318.0893 0001257 103.3329 256.7803 15.08846294 90717,6917.861,95.437,540.596,538.857,0.0
53573.0,STARLINK-4547,PAYLOAD,2024-04-08 23:16:25,15.08849569,0.0001308,53.2163,315.1163,100.535,259.5789,0.00044061,6.733e-05,0.0,0 STARLINK-4547,1 53573U 22101AY  24099.96973392  .00006733  00000-0  44061-3 0  9998,2 53573  53.2163 315.1163 0001308 100.5350 259.5789 15.08849569 90819,6917.851,95.437,540.621,538.811,0.0
53573.0,STARLINK-4547,PAYLOAD,2024-04-09 07:13:20,15.08846555,0.0001422,53.2154,313.6292,91.9905,268.125,0.00031487,4.728e-05,0.0,0 STARLINK-4547,1 53573U 22101AY  24100.30093534  .00004728  00000-0  31487-3 0  9990,2 53573  53.2154 313.6292 0001422  91.9905 268.1250 15.08846555 90867,6917.86,95.437,540.709,538.742,0.0
53573.0,STARLINK-4547,PAYLOAD,2024-04-09 23:07:12,15.08843497,0.0001589,53.2171,310.6559,89.936,270.1814,5.6834e-05,6.17e-06,0.0,0 STARLINK-4547,1 53573U 22101AY  24100.96333551  .00000617  00000-0  56834-4 0  9995,2 53573  53.2171 310.6559 0001589  89.9360 270.1814 15.08843497 90967,6917.87,95.437,540.834,538.635,0.0
53573.0,STARLINK-4547,PAYLOAD,2024-04-10 07:04:07,15.08847757,0.0001577,53.217,309.1675,87.5717,272.5455,-0.00034423,-5.763e-05,0.0,0 STARLINK-4547,1 53573U 22101AY  24101.29453228 -.00005763  00000-0 -34423-3 0  9994,2 53573  53.2170 309.1675 0001577  87.5717 272.5455 15.08847757 91012,6917.857,95.437,540.813,538.631,0.0
53573.0,STARLINK-4547,PAYLOAD,2024-04-10 21:22:36,15.08847546,0.0001142,53.2173,306.4939,94.3694,265.7429,-8.5209e-05,-1.644e-05,0.0,0 STARLINK-4547,1 53573U 22101AY  24101.89069749 -.00001644  00000-0 -85209-4 0  9994,2 53573  53.2173 306.4939 0001142  94.3694 265.7429 15.08847546 91107,6917.857,95.437,540.512,538.932,0.0
53573.0,STARLINK-4547,PAYLOAD,2024-04-11 06:54:54,15.08847883,0.0001206,53.2174,304.7085,88.1963,271.9167,-3.7644e-05,-8.87e-06,0.0,0 STARLINK-4547,1 53573U 22101AY  24102.28813477 -.00000887  00000-0 -37644-4 0  9991,2 53573  53.2174 304.7085 0001206  88.1963 271.9167 15.08847883 91160,6917.856,95.437,540.556,538.887,0.0
